CCSDS_OMM_VERS,COMMENT,CREATION_DATE,ORIGINATOR,OBJECT_NAME,OBJECT_ID,CENTER_NAME,REF_FRAME,TIME_SYSTEM,MEAN_ELEMENT_THEORY,EPOCH,MEAN_MOTION,ECCENTRICITY,INCLINATION,RA_OF_ASC_NODE,ARG_OF_PERICENTER,MEAN_ANOMALY,EPHEMERIS_TYPE,CLASSIFICATION_TYPE,NORAD_CAT_ID,ELEMENT_SET_NO,REV_AT_EPOCH,BSTAR,MEAN_MOTION_DOT,MEAN_MOTION_DDOT,SEMIMAJOR_AXIS,PERIOD,APOAPSIS,PERIAPSIS,OBJECT_TYPE,RCS_SIZE,COUNTRY_CODE,LAUNCH_DATE,SITE,DECAY_DATE,FILE,GP_ID,TLE_LINE0,TLE_LINE1,TLE_LINE2,NORAD_KEY,JCAT,DeepCat,Satcat,Piece,Active,Type,Name,LDate,Parent,Owner,State,SDate,ExpandedStatus,DDate,ODate,Period,Perigee,PF,Apogee,AF,Inc,IF,OpOrbit,SATCAT_KEY,DENSITY_SCORE
3.0,GENERATED VIA SPACE-TRACK.ORG API,2026-05-06T14:46:56,18 SPCS,GALAXY 3,1984-101A,EARTH,TEME,UTC,SGP4,2026-05-06T11:38:15.080928,0.99836137,0.0006549,14.1223,345.4157,35.2675,126.1416,0,U,15308,999,4606,0.0,-2.91e-06,0.0,42287.304,1442.364,35936.863,35881.475,PAYLOAD,LARGE,US,1984-09-21,AFETR,,5177274,322300787,0 GALAXY 3,1 15308U 84101A   26126.48489677 -.00000291  00000-0  00000+0 0  9993,2 15308  14.1223 345.4157 0006549  35.2675 126.1416  0.99836137 46066,15308,S15308,-,15308,1984-101A,P,P      G,Galaxy 3,1984 Sep 21,S15310,HCIE,US,1984 Sep 21 2242,In Earth orbit,-,2026 May  5 ,1442.353,35880, ,35937, ,14.12, ,GEO/ID,15308,1.3882004814527718
3.0,GENERATED VIA SPACE-TRACK.ORG API,2026-05-06T10:08:52,18 SPCS,YAMAL 102,1999-047B,EARTH,TEME,UTC,SGP4,2026-05-06T00:55:00.409152,0.9998955,0.00047321,13.6596,13.0129,12.6493,160.1248,0,U,25897,999,9757,0.0,-2.94e-06,0.0,42244.039,1440.15,35885.894,35845.913,PAYLOAD,LARGE,CIS,1999-09-06,TTMTR,,5176958,322265429,0 YAMAL 102,1 25897U 99047B   26126.03819918 -.00000294  00000-0  00000-0 0  9992,2 25897  13.6596  13.0129 0004732  12.6493 160.1248  0.99989550 97574,25897,S25897,-,25897,1999-047B,P,P,Yamal-102,1999 Sep  6,S25900,GAZS,RU,1999 Sep  6 2315,In Earth orbit,-,2026 May  5 ,1440.145,35845, ,35885, ,13.66, ,GEO/ID,25897,1.3887263769738445
3.0,GENERATED VIA SPACE-TRACK.ORG API,2026-05-06T14:56:52,18 SPCS,ANIK E2,1991-026A,EARTH,TEME,UTC,SGP4,2026-05-06T11:44:53.308896,0.99129498,0.0006486,14.044,12.7035,31.7278,113.4552,0,U,21222,999,11665,0.0,-2.2e-06,0.0,42488.028,1452.645,36137.45,36082.335,PAYLOAD,LARGE,CA,1991-04-04,FRGUI,,5177438,322303844,0 ANIK E2,1 21222U 91026A   26126.48950589 -.00000220  00000-0  00000+0 0  9996,2 21222  14.0440  12.7035 0006486  31.7278 113.4552  0.99129498116655,21222,S21222,-,21222,1991-026A,P,P,Anik E2,1991 Apr  4,S21223,TCANL,CA,1991 Apr  4 2352,In Earth orbit,-,2026 May  4 ,1452.633,36082, ,36137, ,14.04, ,GEO/ID,21222,1.3943710023645355
3.0,GENERATED VIA SPACE-TRACK.ORG API,2026-05-06T07:56:53,18 SPCS,ABS 1A (KOREASAT 2),1996-003A,EARTH,TEME,UTC,SGP4,2026-05-05T20:16:26.260032,0.99789812,0.0001582,12.5496,25.8678,49.0648,145.1359,0,U,23768,999,11075,0.0,1.16e-06,0.0,42300.39,1443.033,35928.947,35915.563,PAYLOAD,LARGE,SKOR,1996-01-14,AFETR,,5176707,322253232,0 ABS 1A (KOREASAT 2),1 23768U 96003A   26125.84474838  .00000116  00000-0  00000+0 0  9993,2 23768  12.5496  25.8678 0001582  49.0648 145.1359  0.99789812110753,23768,S23768,-,23768,1996-003A,P,P,ABS-1A,1996 Jan 14,S23770,ABSHK,HK,1996 Jan 14 1226,In Earth orbit,-,2026 May  4 ,1443.038,35915, ,35929, ,12.55, ,GEO/ID,23768,1.3983817474968556
3.0,GENERATED VIA SPACE-TRACK.ORG API,2026-05-06T14:56:52,18 SPCS,GALAXY 6,1990-091B,EARTH,TEME,UTC,SGP4,2026-05-06T11:50:15.840096,0.99763649,0.0004184,13.9991,10.319,255.3076,261.1644,0,U,20873,999,4603,0.0,-3.49e-06,0.0,42307.785,1443.412,35947.352,35911.949,PAYLOAD,LARGE,US,1990-10-12,FRGUI,,5177427,322303707,0 GALAXY 6,1 20873U 90091B   26126.49323889 -.00000349  00000-0  00000+0 0  9998,2 20873  13.9991  10.3190 0004184 255.3076 261.1644  0.99763649 46033,20873,S20873,-,20873,1990-091B,P,P,Galaxy 6,1990 Oct 12,S20874,SESINTU,US,1990 Oct 12 2323,In Earth orbit,-,2026 May  3 ,1443.39,35911, ,35947, ,14.0, ,GEO/ID,20873,1.3988314744969095
3.0,GENERATED VIA SPACE-TRACK.ORG API,2026-05-06T14:56:52,18 SPCS,XM-1,2001-018A,EARTH,TEME,UTC,SGP4,2026-05-06T07:55:38.503200,0.99005617,0.0011987,8.741,62.1836,324.4599,254.0795,0,U,26761,999,4570,0.0,-1.5e-06,0.0,42523.462,1454.463,36196.3,36094.354,PAYLOAD,LARGE,US,2001-05-08,SEAL,,5177598,322307905,0 XM-1,1 26761U 01018A   26126.33030675 -.00000150  00000-0  00000+0 0  9992,2 26761   8.7410  62.1836 0011987 324.4599 254.0795  0.99005617 45707,26761,S26761,-,26761,2001-018A,P,P,XM-1,2001 May  8,S26762,XMRS,US,2001 May  8 2223,In Earth orbit,-,2026 May  5 ,1454.457,36093, ,36196, ,8.74, ,GEO/ID,26761,1.3988508329950828
3.0,GENERATED VIA SPACE-TRACK.ORG API,2026-05-06T10:08:52,18 SPCS,NSS 7,2002-019A,EARTH,TEME,UTC,SGP4,2026-05-06T01:09:06.556320,0.99084572,0.00019476,9.2216,58.1401,352.3268,188.9141,0,U,27414,999,8804,0.0,-1.72e-06,0.0,42500.87,1453.304,36131.012,36114.457,PAYLOAD,LARGE,SES,2002-04-16,FRGUI,,5176958,322266726,0 NSS 7,1 27414U 02019A   26126.04799255 -.00000172  00000-0  00000-0 0  9999,2 27414   9.2216  58.1401 0001948 352.3268 188.9141  0.99084572 88046,27414,S27414,-,27414,2002-019A,P,P,NSS 7,2002 Apr 16,S27415,SESSAN,NL,2002 Apr 16 2322,In Earth orbit,-,2026 May  5 ,1453.307,36114, ,36130, ,9.22, ,GEO/ID,27414,1.399009564081517
3.0,GENERATED VIA SPACE-TRACK.ORG API,2026-05-06T14:56:52,18 SPCS,NSTAR C,2002-035B,EARTH,TEME,UTC,SGP4,2026-05-06T13:11:49.275168,0.98953964,0.0005815,10.9688,44.5122,210.3653,4.586,0,U,27461,999,8702,0.0,-6.7e-07,0.0,42538.259,1455.222,36184.86,36135.388,PAYLOAD,LARGE,JPN,2002-07-05,FRGUI,,5177611,322308118,0 NSTAR C,1 27461U 02035B   26126.54987587 -.00000067  00000-0  00000+0 0  9993,2 27461  10.9688  44.5122 0005815 210.3653   4.5860  0.98953964 87024,27461,S27461,-,27461,2002-035B,P,P,N-Star c,2002 Jul  5,S27462,NTTDM,J,2002 Jul  5 2359,In Earth orbit,-,2026 May  4 ,1455.235,36135, ,36185, ,10.96, ,GEO/ID,27461,1.400010349505001
3.0,GENERATED VIA SPACE-TRACK.ORG API,2026-05-06T14:56:52,18 SPCS,INTELSAT 10 (PAS 10),2001-019A,EARTH,TEME,UTC,SGP4,2026-05-06T12:56:01.843872,0.99039587,0.0004276,8.9775,59.6649,301.9586,279.8618,0,U,26766,999,4516,0.0,6.3e-07,0.0,42513.738,1453.964,36153.782,36117.424,PAYLOAD,LARGE,US,2001-05-15,TTMTR,,5177599,322308417,0 INTELSAT 10 (PAS 10),1 26766U 01019A   26126.53891023  .00000063  00000-0  00000+0 0  9994,2 26766   8.9775  59.6649 0004276 301.9586 279.8618  0.99039587 45162,26766,S26766,-,26766,2001-019A,P,P,Intelsat IS-10,2001 May 15,S26769,SESINTU,US,2001 May 15 0744,In Earth orbit,-,2026 May  4 ,1453.973,36117, ,36154, ,8.97, ,GEO/ID,26766,1.4004407628197109
3.0,GENERATED VIA SPACE-TRACK.ORG API,2026-05-06T10:08:52,18 SPCS,BRAZILSAT B4,2000-046A,EARTH,TEME,UTC,SGP4,2026-05-06T01:08:36.604032,0.99169202,0.00048185,9.166,59.3901,242.9572,295.1967,0,U,26469,999,9434,0.0,-1.75e-06,0.0,42476.686,1452.064,36119.019,36078.084,PAYLOAD,LARGE,BRAZ,2000-08-17,FRGUI,,5176958,322266059,0 BRAZILSAT B4,1 26469U 00046A   26126.04764588 -.00000175  00000-0  00000-0 0  9990,2 26469   9.1660  59.3901 0004818 242.9572 295.1967  0.99169202 94347,26469,S26469,-,26469,2000-046A,P,P,Star One B4,2000 Aug 17,S26471,STONE,BR,2000 Aug 17 2337,In Earth orbit,-,2026 May  5 ,1452.065,36077, ,36119, ,9.16, ,GEO/ID,26469,1.402976283734198
3.0,GENERATED VIA SPACE-TRACK.ORG API,2026-05-06T14:56:52,18 SPCS,INTELSAT 3R (PAS 3R),1996-002A,EARTH,TEME,UTC,SGP4,2026-05-06T10:00:45.773280,0.99086399,0.0012812,11.6803,37.148,290.0266,283.4781,0,U,23764,999,11037,0.0,6.7e-07,0.0,42500.347,1453.277,36176.664,36067.761,PAYLOAD,LARGE,US,1996-01-12,FRGUI,,5177519,322305854,0 INTELSAT 3R (PAS 3R),1 23764U 96002A   26126.41719645  .00000067  00000-0  00000+0 0  9995,2 23764  11.6803  37.1480 0012812 290.0266 283.4781  0.99086399110373,23764,S23764,-,23764,1996-002A,P,P,Intelsat IS-3R,1996 Jan 12,S23766,SESINTU,US,1996 Jan 12 2330,In Earth orbit,-,2026 May  4 ,1453.282,36067, ,36176, ,11.68, ,GEO/ID,23764,1.406002986357581
3.0,GENERATED VIA SPACE-TRACK.ORG API,2026-05-06T14:56:52,18 SPCS,EUTE 8 WEST C (HB 6),2002-038A,EARTH,TEME,UTC,SGP4,2026-05-06T13:25:21.192384,0.99327789,0.0003828,8.4661,63.0912,306.1488,228.0143,0,U,27499,999,5052,0.0,-1.78e-06,0.0,42431.462,1449.745,36069.57,36037.084,PAYLOAD,LARGE,EUTE,2002-08-21,AFETR,,5177612,322308132,0 EUTE 8 WEST C (HB 6),1 27499U 02038A   26126.55927306 -.00000178  00000-0  00000+0 0  9994,2 27499   8.4661  63.0912 0003828 306.1488 228.0143  0.99327789 50526,27499,S27499,-,27499,2002-038A,P,P,EUTELSAT 70D,2002 Aug 21,S27500,EUTSA,F,2002 Aug 21 2236,In Earth orbit,-,2026 May  4 ,1449.75,36036, ,36070, ,8.46, ,GEO/ID,27499,1.4067258655612547
3.0,GENERATED VIA SPACE-TRACK.ORG API,2026-05-06T14:56:52,18 SPCS,USA 44,1989-069B,EARTH,TEME,UTC,SGP4,2026-05-06T12:16:31.168704,0.99123502,0.0012022,14.7036,4.3869,17.9778,185.7778,0,U,20203,999,2457,0.0,-2.74e-06,0.0,42489.741,1452.733,36162.687,36060.525,PAYLOAD,,US,1989-09-04,AFETR,,5177406,322303446,0 USA 44,1 20203U 89069B   26126.51147186 -.00000274  00000-0  00000+0 0  9992,2 20203  14.7036   4.3869 0012022  17.9778 185.7778  0.99123502 24578,20203,S20203,-,20203,1989-069B,P,P       c,DSCS III A-2,1989 Sep  4,S20205,SFSSC/DISA,US,1989 Sep  4 1215?,In Earth orbit,-,2026 May  4 ,1452.734,36059, ,36163, ,14.7, ,GEO/ID,20203,1.4073556156051565
3.0,GENERATED VIA SPACE-TRACK.ORG API,2026-05-06T14:46:56,18 SPCS,TDF 1,1988-098A,EARTH,TEME,UTC,SGP4,2026-05-06T08:27:38.457216,0.99196879,0.0008763,14.736,350.6568,264.7624,276.4025,0,U,19621,999,13343,0.0,-1.54e-06,0.0,42468.785,1451.659,36127.865,36053.435,PAYLOAD,LARGE,FR,1988-10-28,FRGUI,,5177317,322301362,0 TDF 1,1 19621U 88098A   26126.35252844 -.00000154  00000-0  00000+0 0  9992,2 19621  14.7360 350.6568 0008763 264.7624 276.4025  0.99196879133438,19621,S19621,-,19621,1988-098A,P,P,TDF 1,1988 Oct 28,S19622,ORANGE,F,1988 Oct 28 0236,In Earth orbit,-,2026 May  4 ,1451.666,36053, ,36128, ,14.74, ,GEO/ID,19621,1.4085216582398086
